[{"OBJECT_NAME":"NETSAT-1","OBJECT_ID":"2020-068W","EPOCH":"2026-03-09T22:42:38.711232","MEAN_MOTION":15.32042482,"ECCENTRICITY":0.00057337,"INCLINATION":97.8751,"RA_OF_ASC_NODE":63.2583,"ARG_OF_PERICENTER":18.5877,"MEAN_ANOMALY":341.5572,"EPHEMERIS_TYPE":0,"CLASSIFICATION_TYPE":"U","NORAD_CAT_ID":46506,"ELEMENT_SET_NO":999,"REV_AT_EPOCH":30009,"BSTAR":0.00059222329,"MEAN_MOTION_DOT":0.00018269,"MEAN_MOTION_DDOT":0},{"OBJECT_NAME":"STARLINK-32005","OBJECT_ID":"2024-111U","EPOCH":"2026-03-09T10:09:18.082944","MEAN_MOTION":15.30189799,"ECCENTRICITY":0.00013417,"INCLINATION":53.1608,"RA_OF_ASC_NODE":76.7898,"ARG_OF_PERICENTER":94.4829,"MEAN_ANOMALY":265.6325,"EPHEMERIS_TYPE":0,"CLASSIFICATION_TYPE":"U","NORAD_CAT_ID":60034,"ELEMENT_SET_NO":999,"REV_AT_EPOCH":9889,"BSTAR":-9.065365e-6,"MEAN_MOTION_DOT":-6.28e-6,"MEAN_MOTION_DDOT":0}]
